{
  "type": "FeatureCollection",
  "features": [
    {
      "type": "Feature",
      "properties": {
        "norad_id": 19071,
        "name": "OSCAR 32",
        "group": "nnss",
        "lat": 7.73203184361943,
        "lon": -163.03898219144412,
        "alt_km": 1046.7279893887053,
        "timestamp": "2025-12-25T09:48:52.559065+00:00",
        "meta_object_name": "OSCAR 32",
        "meta_object_id": "1988-033B",
        "meta_epoch": "2025-12-25T01:46:19.026048",
        "meta_mean_motion": 13.27955759,
        "meta_eccentricity": 0.0189236,
        "meta_inclination": 90.3208,
        "meta_ra_of_asc_node": 16.907,
        "meta_arg_of_pericenter": 132.6407,
        "meta_mean_anomaly": 237.0138,
        "meta_ephemeris_type": 0,
        "meta_classification_type": "U",
        "meta_norad_cat_id": 19071,
        "meta_element_set_no": 999,
        "meta_rev_at_epoch": 82429,
        "meta_bstar": 9.9554e-05,
        "meta_mean_motion_dot": 5.9e-07,
        "meta_mean_motion_ddot": 0,
        "tle_line1": "1 19071U 88033B   25359.07383132  .00000059  00000+0  99554-4 0  9990",
        "tle_line2": "2 19071  90.3208  16.9070 0189236 132.6407 237.0138 13.27955759824299"
      },
      "geometry": {
        "type": "Point",
        "coordinates": [
          -163.03898219144412,
          7.73203184361943
        ]
      }
    },
    {
      "type": "Feature",
      "properties": {
        "norad_id": 19223,
        "name": "NOVA 2",
        "group": "nnss",
        "lat": 40.35536867017547,
        "lon": -101.75515020547022,
        "alt_km": 1191.0111481654094,
        "timestamp": "2025-12-25T09:48:52.559075+00:00",
        "meta_object_name": "NOVA 2",
        "meta_object_id": "1988-052A",
        "meta_epoch": "2025-12-24T19:11:53.971008",
        "meta_mean_motion": 13.22937139,
        "meta_eccentricity": 0.00295439,
        "meta_inclination": 89.9863,
        "meta_ra_of_asc_node": 78.2573,
        "meta_arg_of_pericenter": 343.513,
        "meta_mean_anomaly": 137.1394,
        "meta_ephemeris_type": 0,
        "meta_classification_type": "U",
        "meta_norad_cat_id": 19223,
        "meta_element_set_no": 999,
        "meta_rev_at_epoch": 81107,
        "meta_bstar": 0.00014443023,
        "meta_mean_motion_dot": 6.9e-07,
        "meta_mean_motion_ddot": 0,
        "tle_line1": "1 19223U 88052A   25358.79993022  .00000069  00000+0  14443-3 0  9997",
        "tle_line2": "2 19223  89.9863  78.2573 0029543 343.5130 137.1394 13.22937139811071"
      },
      "geometry": {
        "type": "Point",
        "coordinates": [
          -101.75515020547022,
          40.35536867017547
        ]
      }
    },
    {
      "type": "Feature",
      "properties": {
        "norad_id": 19419,
        "name": "OSCAR 25",
        "group": "nnss",
        "lat": 32.20002844513313,
        "lon": 20.264027035832598,
        "alt_km": 1168.7049753984347,
        "timestamp": "2025-12-25T09:48:52.559085+00:00",
        "meta_object_name": "OSCAR 25",
        "meta_object_id": "1988-074A",
        "meta_epoch": "2025-12-24T13:00:49.693248",
        "meta_mean_motion": 13.42625466,
        "meta_eccentricity": 0.00951606,
        "meta_inclination": 90.0336,
        "meta_ra_of_asc_node": 20.2823,
        "meta_arg_of_pericenter": 211.7174,
        "meta_mean_anomaly": 313.9543,
        "meta_ephemeris_type": 0,
        "meta_classification_type": "U",
        "meta_norad_cat_id": 19419,
        "meta_element_set_no": 999,
        "meta_rev_at_epoch": 82798,
        "meta_bstar": 0.00013246409,
        "meta_mean_motion_dot": 8.6e-07,
        "meta_mean_motion_ddot": 0,
        "tle_line1": "1 19419U 88074A   25358.54224182  .00000086  00000+0  13246-3 0  9994",
        "tle_line2": "2 19419  90.0336  20.2823 0095160 211.7174 313.9543 13.42625466827989"
      },
      "geometry": {
        "type": "Point",
        "coordinates": [
          20.264027035832598,
          32.20002844513313
        ]
      }
    },
    {
      "type": "Feature",
      "properties": {
        "norad_id": 19420,
        "name": "OSCAR 31",
        "group": "nnss",
        "lat": -84.64213494953036,
        "lon": 21.01489121035655,
        "alt_km": 1084.908859643605,
        "timestamp": "2025-12-25T09:48:52.559096+00:00",
        "meta_object_name": "OSCAR 31",
        "meta_object_id": "1988-074B",
        "meta_epoch": "2025-12-24T20:48:18.577152",
        "meta_mean_motion": 13.42586519,
        "meta_eccentricity": 0.00935792,
        "meta_inclination": 90.0354,
        "meta_ra_of_asc_node": 20.6353,
        "meta_arg_of_pericenter": 204.9262,
        "meta_mean_anomaly": 331.0281,
        "meta_ephemeris_type": 0,
        "meta_classification_type": "U",
        "meta_norad_cat_id": 19420,
        "meta_element_set_no": 999,
        "meta_rev_at_epoch": 82813,
        "meta_bstar": 0.00010318326,
        "meta_mean_motion_dot": 6.9e-07,
        "meta_mean_motion_ddot": 0,
        "tle_line1": "1 19420U 88074B   25358.86688168  .00000069  00000+0  10318-3 0  9997",
        "tle_line2": "2 19420  90.0354  20.6353 0093579 204.9262 331.0281 13.42586519828130"
      },
      "geometry": {
        "type": "Point",
        "coordinates": [
          21.01489121035655,
          -84.64213494953036
        ]
      }
    }
  ]
}